UM5-RIBAT               
1 60554U 24149CQ  26068.79561721  .00004725  00000+0  37993-3 0  9991
2 60554  97.6776 147.9138 0003272  87.0399 273.1199 15.00468196 85282
STARLINK-34117          
1 64040U 25102U   26068.52010855  .00009195  00000+0  77784-3 0  9991
2 64040  70.0009 115.0040 0003098 269.9490  90.1314 14.98306685 45863
